0 IRIDIUM 150
1 43257U 18030J   24006.32041819  .00000336  00000-0  11274-3 0  9993
2 43257  86.3976 303.6187 0002051  75.5210 284.6213 14.34217201302183
0 IRIDIUM 143
1 43258U 18030K   24006.37115051  .00000474  00000-0  16230-3 0  9999
2 43258  86.3978 303.6544 0001891  78.6887 281.4521 14.34218578302127
0 IRIDIUM 161
1 43478U 18047C   24006.32658812  .00000457  00000-0  12973-3 0  9994
2 43478  86.4493 101.6572 0002202  95.8463 264.2989 14.43291135296353
0 IRIDIUM 152
1 43479U 18047D   24006.34386653  .00000280  00000-0  92911-4 0  9993
2 43479  86.3967 101.5089 0001979 104.2953 255.8462 14.34219278294516
0 IRIDIUM 147
1 43480U 18047E   24006.35020612  .00000333  00000-0  11192-3 0  9996
2 43480  86.3969 101.4957 0002369  97.2900 262.8565 14.34220675294515
0 IRIDIUM 110
1 43481U 18047F   24006.35655388  .00000368  00000-0  12447-3 0  9993
2 43481  86.3970 101.5617 0002474  91.7625 268.3854 14.34217377294508
0 IRIDIUM 162
1 43482U 18047G   24006.25100356  .00000452  00000-0  12831-3 0  9994
2 43482  86.4491 101.5909 0002191  94.9264 265.2187 14.43289336296334
0 IRIDIUM 160
1 43569U 18061A   24006.23262042 -.00000233  00000-0 -90151-4 0  9996
2 43569  86.3950  69.9651 0002102 105.7530 254.3898 14.34215817285383
